OBJECT_NAME,OBJECT_ID,EPOCH,MEAN_MOTION,ECCENTRICITY,INCLINATION,RA_OF_ASC_NODE,ARG_OF_PERICENTER,MEAN_ANOMALY,EPHEMERIS_TYPE,CLASSIFICATION_TYPE,NORAD_CAT_ID,ELEMENT_SET_NO,REV_AT_EPOCH,BSTAR,MEAN_MOTION_DOT,MEAN_MOTION_DDOT
USA 167,2003-008A,2026-07-15T16:12:46.223136,1.00270106,.0003414,11.0163,43.1493,310.5442,61.2596,0,U,27691,999,706,0,-.1E-6,0
USA 169 (MILSTAR-2 4),2003-012A,2026-07-15T08:57:29.791872,1.00273217,.00993535,12.3911,29.6084,10.2390,179.8966,0,U,27711,999,3323,0,-.211E-5,0
ASIASAT 4,2003-014A,2026-07-15T16:35:38.585184,1.00272567,.0002866,4.7742,75.3868,38.2075,216.3940,0,U,27718,999,4558,0,-.235E-5,0
HELLAS-SAT 2,2003-020A,2026-07-15T20:10:01.397280,1.00271459,.0003656,7.4238,67.5377,81.5977,77.0167,0,U,27811,999,4313,0,-.98E-6,0
THURAYA-2,2003-026A,2026-07-15T16:59:53.371104,1.00271342,.00026,8.8816,31.8409,25.8036,174.8866,0,U,27825,999,8463,0,.112E-5,0
OPTUS C1,2003-028B,2026-07-15T15:06:27.412416,1.00269128,.0005241,6.9587,69.0612,41.9553,204.7594,0,U,27831,999,5334,0,-.166E-5,0
USA 170,2003-040A,2026-07-15T04:55:53.262048,1.00275020,.0001778,10.5579,47.6780,75.8091,267.7866,0,U,27875,999,3327,0,.112E-5,0
GALAXY 13 (HORIZONS-1),2003-044A,2026-07-15T17:47:18.032352,1.00271527,.0002133,1.4905,83.4977,31.0500,295.8427,0,U,27954,999,4685,0,.121E-5,0
YAMAL 202,2003-053A,2026-07-15T15:02:28.461120,1.00271910,.0003211,6.4119,70.5910,42.7658,209.2717,0,U,28089,999,8298,0,-.94E-6,0
UFO 11 (USA 174),2003-057A,2026-07-15T13:43:45.558048,1.00270228,.0002688,8.9592,33.6830,95.5383,85.7048,0,U,28117,999,8273,0,-.117E-5,0
USA 176 (DSP 22),2004-004A,2026-07-15T09:42:47.948832,1.00265669,.00011642,12.1000,25.8579,293.6512,69.9947,0,U,28158,999,3322,0,-.31E-5,0
ABS-4 (MOBISAT-1),2004-007A,2026-07-15T17:58:38.548992,1.00273550,.0004591,6.1109,71.6568,45.0637,147.4875,0,U,28184,999,5262,0,.25E-6,0
INTELSAT 10-02,2004-022A,2026-07-15T20:12:31.156128,1.00272272,.0000423,0.0544,252.7692,347.2163,355.8219,0,U,28358,999,8084,0,-.21E-6,0
ANIK F2,2004-027A,2026-07-15T14:33:06.106752,1.00271529,.0003602,3.3590,79.0672,32.2973,289.2323,0,U,28378,999,4154,0,-.62E-6,0
AMC-15,2004-041A,2026-07-15T16:17:30.770304,1.00270580,.0002138,0.0388,294.9991,173.9587,323.8894,0,U,28446,999,7958,0,-.99E-6,0
NSS-10,2005-003A,2026-07-15T11:42:38.570688,1.00269943,.00026428,6.5185,70.1057,42.4408,318.9856,0,U,28526,999,5344,0,-.265E-5,0
INMARSAT 4-F1,2005-009A,2026-07-15T17:38:18.892032,1.00271080,.0002552,5.2066,42.7884,72.3357,261.1236,0,U,28628,999,7795,0,.2E-6,0
DIRECTV 8,2005-019A,2026-07-15T17:55:47.216928,1.00270558,.0003192,0.0200,58.2711,72.1736,313.0541,0,U,28659,999,7735,0,0,0
GALAXY 28 (G-28),2005-022A,2026-07-15T18:22:22.167840,1.00271927,.0002506,3.3696,78.5790,27.9998,75.5228,0,U,28702,999,5226,0,-.212E-5,0
THAICOM 4,2005-028A,2026-07-15T19:04:13.077120,1.00271669,.0001462,0.3172,85.4944,7.7913,245.8930,0,U,28786,999,5253,0,-.373E-5,0
ANIK F1R,2005-036A,2026-07-15T16:16:53.328864,1.00271271,.0003847,4.3836,76.2235,17.8735,336.3329,0,U,28868,999,4673,0,-.88E-6,0
SYRACUSE 3A,2005-041B,2026-07-15T20:26:04.630272,1.00274422,.0002704,4.7125,75.4855,36.1143,175.2660,0,U,28885,999,7603,0,.116E-5,0
INMARSAT 4-F2,2005-044A,2026-07-15T19:11:04.920000,1.00270729,.0002754,5.1319,43.6618,61.8180,259.4223,0,U,28899,999,7580,0,-.273E-5,0
METEOSAT-9 (MSG-2),2005-049B,2026-07-15T17:00:30.810816,1.00272260,.0002207,9.4242,53.8824,356.2900,184.1676,0,U,28912,999,728,0,.11E-5,0
EUTELSAT 174A,2005-052A,2026-07-15T16:19:38.713152,1.00271238,.0005848,4.2889,76.1728,39.7859,236.4176,0,U,28924,999,5261,0,-.4E-7,0
ECHOSTAR 10,2006-003A,2026-07-15T16:16:00.911712,1.00270395,.0001108,0.0542,283.1960,188.4610,315.6746,0,U,28935,999,7474,0,-.65E-6,0
SPAINSAT,2006-007A,2026-07-15T06:28:27.814368,1.00269415,.0004655,0.6340,86.0527,27.9824,245.9942,0,U,28945,999,7450,0,-.227E-5,0
JCSAT-5A,2006-010A,2026-07-15T19:07:50.231424,1.00272374,.0001707,1.1814,83.8906,21.0004,247.7412,0,U,29045,999,7405,0,-.339E-5,0
ASTRA 1KR,2006-012A,2026-07-15T20:18:08.116992,1.00270757,.0003327,0.5460,83.1745,23.9073,150.1253,0,U,29055,999,4598,0,.108E-5,0
GALAXY 16 (G-16),2006-023A,2026-07-15T16:19:15.602016,1.00271358,.0002491,0.0257,162.5439,310.1808,326.6004,0,U,29236,999,7325,0,-.137E-5,0
EUTELSAT 33F,2006-032A,2026-07-15T20:22:12.501120,1.00272151,.000344,1.7338,81.9219,29.6158,160.7622,0,U,29270,999,4759,0,.144E-5,0
JCSAT-3A,2006-033A,2026-07-15T13:17:38.420160,1.00270480,.00018282,0.0130,23.1373,91.7026,145.9655,0,U,29272,999,4802,0,-.355E-5,0
