USA 167                 
1 27691U 03008A   26196.67553499 -.00000010  00000+0  00000+0 0  9998
2 27691  11.0163  43.1493 0003414 310.5442  61.2596  1.00270106  7063
USA 169 (MILSTAR-2 4)   
1 27711U 03012A   26196.37326148 -.00000211  00000+0  00000+0 0  9995
2 27711  12.3911  29.6084 0099353  10.2390 179.8966  1.00273217 33230
ASIASAT 4               
1 27718U 03014A   26196.69141881 -.00000235  00000+0  00000+0 0  9994
2 27718   4.7742  75.3868 0002866  38.2075 216.3940  1.00272567 45582
HELLAS-SAT 2            
1 27811U 03020A   26196.84029395 -.00000098  00000+0  00000+0 0  9994
2 27811   7.4238  67.5377 0003656  81.5977  77.0167  1.00271459 43135
THURAYA-2               
1 27825U 03026A   26196.70825661  .00000112  00000+0  00000+0 0  9996
2 27825   8.8816  31.8409 0002600  25.8036 174.8866  1.00271342 84635
OPTUS C1                
1 27831U 03028B   26196.62948394 -.00000166  00000+0  00000+0 0  9995
2 27831   6.9587  69.0612 0005241  41.9553 204.7594  1.00269128 53346
USA 170                 
1 27875U 03040A   26196.20547757  .00000112  00000+0  00000+0 0  9999
2 27875  10.5579  47.6780 0001778  75.8091 267.7866  1.00275020 33277
GALAXY 13 (HORIZONS-1)  
1 27954U 03044A   26196.74118093  .00000121  00000+0  00000+0 0  9997
2 27954   1.4905  83.4977 0002133  31.0500 295.8427  1.00271527 46859
YAMAL 202               
1 28089U 03053A   26196.62671830 -.00000094  00000+0  00000+0 0  9997
2 28089   6.4119  70.5910 0003211  42.7658 209.2717  1.00271910 82987
UFO 11 (USA 174)        
1 28117U 03057A   26196.57205507 -.00000117  00000+0  00000+0 0  9997
2 28117   8.9592  33.6830 0002688  95.5383  85.7048  1.00270228 82738
USA 176 (DSP 22)        
1 28158U 04004A   26196.40472163 -.00000310  00000+0  00000+0 0  9996
2 28158  12.1000  25.8579 0001164 293.6512  69.9947  1.00265669 33225
ABS-4 (MOBISAT-1)       
1 28184U 04007A   26196.74905728  .00000025  00000+0  00000+0 0  9995
2 28184   6.1109  71.6568 0004591  45.0637 147.4875  1.00273550 52623
INTELSAT 10-02          
1 28358U 04022A   26196.84202727 -.00000021  00000+0  00000+0 0  9992
2 28358   0.0544 252.7692 0000423 347.2163 355.8219  1.00272272 80845
ANIK F2                 
1 28378U 04027A   26196.60632068 -.00000062  00000+0  00000+0 0  9993
2 28378   3.3590  79.0672 0003602  32.2973 289.2323  1.00271529 41548
AMC-15                  
1 28446U 04041A   26196.67882836 -.00000099  00000+0  00000+0 0  9992
2 28446   0.0388 294.9991 0002138 173.9587 323.8894  1.00270580 79581
NSS-10                  
1 28526U 05003A   26196.48794642 -.00000265  00000+0  00000+0 0  9991
2 28526   6.5185  70.1057 0002642  42.4408 318.9856  1.00269943 53446
INMARSAT 4-F1           
1 28628U 05009A   26196.73494088  .00000020  00000+0  00000+0 0  9997
2 28628   5.2066  42.7884 0002552  72.3357 261.1236  1.00271080 77959
DIRECTV 8               
1 28659U 05019A   26196.74707427  .00000000  00000+0  00000+0 0  9995
2 28659   0.0200  58.2711 0003192  72.1736 313.0541  1.00270558 77356
GALAXY 28 (G-28)        
1 28702U 05022A   26196.76553435 -.00000212  00000+0  00000+0 0  9994
2 28702   3.3696  78.5790 0002506  27.9998  75.5228  1.00271927 52264
THAICOM 4               
1 28786U 05028A   26196.79459580 -.00000373  00000+0  00000+0 0  9999
2 28786   0.3172  85.4944 0001462   7.7913 245.8930  1.00271669 52538
ANIK F1R                
1 28868U 05036A   26196.67839501 -.00000088  00000+0  00000+0 0  9994
2 28868   4.3836  76.2235 0003847  17.8735 336.3329  1.00271271 46736
SYRACUSE 3A             
1 28885U 05041B   26196.85144248  .00000116  00000+0  00000+0 0  9997
2 28885   4.7125  75.4855 0002704  36.1143 175.2660  1.00274422 76032
INMARSAT 4-F2           
1 28899U 05044A   26196.79936250 -.00000273  00000+0  00000+0 0  9995
2 28899   5.1319  43.6618 0002754  61.8180 259.4223  1.00270729 75802
METEOSAT-9 (MSG-2)      
1 28912U 05049B   26196.70868994  .00000110  00000+0  00000+0 0  9995
2 28912   9.4242  53.8824 0002207 356.2900 184.1676  1.00272260  7281
EUTELSAT 174A           
1 28924U 05052A   26196.68030918 -.00000004  00000+0  00000+0 0  9999
2 28924   4.2889  76.1728 0005848  39.7859 236.4176  1.00271238 52612
ECHOSTAR 10             
1 28935U 06003A   26196.67778833 -.00000065  00000+0  00000+0 0  9999
2 28935   0.0542 283.1960 0001108 188.4610 315.6746  1.00270395 74748
SPAINSAT                
1 28945U 06007A   26196.26976637 -.00000227  00000+0  00000+0 0  9991
2 28945   0.6340  86.0527 0004655  27.9824 245.9942  1.00269415 74502
JCSAT-5A                
1 29045U 06010A   26196.79710916 -.00000339  00000+0  00000+0 0  9995
2 29045   1.1814  83.8906 0001707  21.0004 247.7412  1.00272374 74052
ASTRA 1KR               
1 29055U 06012A   26196.84592728  .00000108  00000+0  00000+0 0  9996
2 29055   0.5460  83.1745 0003327  23.9073 150.1253  1.00270757 45987
GALAXY 16 (G-16)        
1 29236U 06023A   26196.68004169 -.00000137  00000+0  00000+0 0  9991
2 29236   0.0257 162.5439 0002491 310.1808 326.6004  1.00271358 73250
EUTELSAT 33F            
1 29270U 06032A   26196.84875580  .00000144  00000+0  00000+0 0  9997
2 29270   1.7338  81.9219 0003440  29.6158 160.7622  1.00272151 47594
JCSAT-3A                
1 29272U 06033A   26196.55391690 -.00000355  00000+0  00000+0 0  9998
2 29272   0.0130  23.1373 0001828  91.7026 145.9655  1.00270480 48022
